NORAD_CAT_ID,OBJECT_NAME,OBJECT_TYPE,EPOCH,MEAN_MOTION,ECCENTRICITY,INCLINATION,RA_OF_ASC_NODE,ARG_OF_PERICENTER,MEAN_ANOMALY,BSTAR,MEAN_MOTION_DOT,MEAN_MOTION_DDOT,TLE_LINE0,TLE_LINE1,TLE_LINE2,SEMIMAJOR_AXIS,PERIOD,APOGEE,PERIGEE,DECAYED
51126.0,STARLINK-3386,PAYLOAD,2024-04-13 05:41:35,15.08819873,0.0001359,53.2177,181.1383,102.8945,257.2199,0.00032976,4.961e-05,0.0,0 STARLINK-3386,1 51126U 22005Y   24104.23722003  .00004961  00000-0  32976-3 0  9994,2 51126  53.2177 181.1383 0001359 102.8945 257.2199 15.08819873124860,6917.942,95.439,540.747,538.867,0.0
51126.0,STARLINK-3386,PAYLOAD,2024-04-13 12:03:08,15.08834301,0.0001225,53.2172,179.9466,99.439,260.674,3.3042e-05,2.38e-06,0.0,0 STARLINK-3386,1 51126U 22005Y   24104.50217891  .00000238  00000-0  33042-4 0  9997,2 51126  53.2172 179.9466 0001225  99.4390 260.6740 15.08834301123793,6917.898,95.438,540.61,538.915,0.0
51126.0,STARLINK-3386,PAYLOAD,2024-04-14 10:18:31,15.08839977,0.0001114,53.2168,175.782,90.3662,269.7458,9.4443e-05,1.216e-05,0.0,0 STARLINK-3386,1 51126U 22005Y   24105.42953610  .00001216  00000-0  94443-4 0  9994,2 51126  53.2168 175.7820 0001114  90.3662 269.7458 15.08839977125045,6917.88,95.438,540.516,538.975,0.0
51126.0,STARLINK-3386,PAYLOAD,2024-04-15 11:44:41,15.08842818,0.0001203,53.2169,171.0257,95.0157,265.0973,0.00014827,2.073e-05,0.0,0 STARLINK-3386,1 51126U 22005Y   24106.48937471  .00002073  00000-0  14827-3 0  9997,2 51126  53.2169 171.0257 0001203  95.0157 265.0973 15.08842818125206,6917.872,95.437,540.569,538.905,0.0
51126.0,STARLINK-3386,PAYLOAD,2024-04-15 13:20:05,15.08843173,0.0001213,53.217,170.7293,96.9531,263.1599,0.00015171,2.128e-05,0.0,0 STARLINK-3386,1 51126U 22005Y   24106.55561464  .00002128  00000-0  15171-3 0  9994,2 51126  53.2170 170.7293 0001213  96.9531 263.1599 15.08843173124107,6917.871,95.437,540.575,538.897,0.0
51126.0,STARLINK-3386,PAYLOAD,2024-04-16 11:35:28,15.08847809,0.0001399,53.2165,166.5679,96.376,263.7392,0.00016715,2.374e-05,0.0,0 STARLINK-3386,1 51126U 22005Y   24107.48297359  .00002374  00000-0  16715-3 0  9994,2 51126  53.2165 166.5679 0001399  96.3760 263.7392 15.08847809124247,6917.857,95.437,540.689,538.754,0.0
51126.0,STARLINK-3386,PAYLOAD,2024-04-17 03:29:20,15.08846754,0.0001563,53.2168,163.595,87.3516,272.7655,0.0001331,1.831e-05,0.0,0 STARLINK-3386,1 51126U 22005Y   24108.14537440  .00001831  00000-0  13310-3 0  9991,2 51126  53.2168 163.5950 0001563  87.3516 272.7655 15.08846754125455,6917.86,95.437,540.806,538.643,0.0
51126.0,STARLINK-3386,PAYLOAD,2024-04-17 09:50:53,15.08837531,0.0001519,53.2169,162.4016,92.2342,267.8824,8.6461e-06,-1.5e-06,0.0,0 STARLINK-3386,1 51126U 22005Y   24108.41033968 -.00000150  00000-0  86461-5 0  9990,2 51126  53.2169 162.4016 0001519  92.2342 267.8824 15.08837531125490,6917.888,95.438,540.804,538.702,0.0
51126.0,STARLINK-3386,PAYLOAD,2024-04-17 20:58:35,15.08836022,0.0001522,53.2169,160.3209,92.3272,267.7895,1.4826e-05,-5.2e-07,0.0,0 STARLINK-3386,1 51126U 22005Y   24108.87402220 -.00000052  00000-0  14826-4 0  9997,2 51126  53.2169 160.3209 0001522  92.3272 267.7895 15.08836022124454,6917.893,95.438,540.81,538.705,0.0
51126.0,STARLINK-3386,PAYLOAD,2024-04-18 09:41:41,15.08833106,0.0001593,53.2175,157.9408,103.0166,257.1004,-2.5942e-05,-7.01e-06,0.0,0 STARLINK-3386,1 51126U 22005Y   24109.40394895 -.00000701  00000-0 -25942-4 0  9998,2 51126  53.2175 157.9408 0001593 103.0166 257.1004 15.08833106125641,6917.901,95.438,540.868,538.664,0.0
51126.0,STARLINK-3386,PAYLOAD,2024-04-19 12:43:13,15.08840398,0.0001696,53.218,152.8859,106.6779,253.44,0.00016214,2.293e-05,0.0,0 STARLINK-3386,1 51126U 22005Y   24110.53002222  .00002293  00000-0  16214-3 0  9991,2 51126  53.2180 152.8859 0001696 106.6779 253.4400 15.08840398125813,6917.879,95.438,540.917,538.571,0.0
51126.0,STARLINK-3386,PAYLOAD,2024-04-20 12:33:59,15.08866499,0.0001578,53.2168,148.4274,96.1184,263.9988,0.00041052,6.256e-05,0.0,0 STARLINK-3386,1 51126U 22005Y   24111.52360803  .00006256  00000-0  41052-3 0  9994,2 51126  53.2168 148.4274 0001578  96.1184 263.9988 15.08866499125966,6917.799,95.436,540.756,538.573,0.0
51126.0,STARLINK-3386,PAYLOAD,2024-04-21 02:52:28,15.08839819,0.0001457,53.2162,145.7527,89.4978,270.6181,-0.00020415,-3.536e-05,0.0,0 STARLINK-3386,1 51126U 22005Y   24112.11977655 -.00003536  00000-0 -20415-3 0  9999,2 51126  53.2162 145.7527 0001457  89.4978 270.6181 15.08839819126050,6917.881,95.438,540.754,538.738,0.0
51126.0,STARLINK-3386,PAYLOAD,2024-04-21 12:24:48,15.08810769,0.0001399,53.2164,143.9672,87.1794,272.9358,-0.00071702,-0.00011672,0.0,0 STARLINK-3386,1 51126U 22005Y   24112.51722553 -.00011672  00000-0 -71702-3 0  9993,2 51126  53.2164 143.9672 0001399  87.1794 272.9358 15.08810769125007,6917.97,95.439,540.803,538.867,0.0
51126.0,STARLINK-3386,PAYLOAD,2024-04-22 01:07:54,15.0882229,0.0001218,53.2161,141.5887,81.4458,278.6672,0.00029647,4.431e-05,0.0,0 STARLINK-3386,1 51126U 22005Y   24113.04715318  .00004431  00000-0  29647-3 0  9997,2 51126  53.2161 141.5887 0001218  81.4458 278.6672 15.08822290126195,6917.935,95.439,540.642,538.957,0.0
51126.0,STARLINK-3386,PAYLOAD,2024-04-22 07:29:26,15.08838085,0.0001314,53.2161,140.4005,75.5272,284.5866,0.0015108,0.00023837,0.0,0 STARLINK-3386,1 51126U 22005Y   24113.31211741  .00023837  00000-0  15108-2 0  9995,2 51126  53.2161 140.4005 0001314  75.5272 284.5866 15.08838085126235,6917.886,95.438,540.66,538.842,0.0
51126.0,STARLINK-3386,PAYLOAD,2024-04-23 10:30:59,15.08859081,0.0001281,53.2153,135.3461,74.9556,285.1578,0.00077487,0.00012072,0.0,0 STARLINK-3386,1 51126U 22005Y   24114.43819210  .00012072  00000-0  77487-3 0  9992,2 51126  53.2153 135.3461 0001281  74.9556 285.1578 15.08859081126401,6917.822,95.436,540.573,538.801,0.0
51126.0,STARLINK-3386,PAYLOAD,2024-04-24 10:21:47,15.08835991,0.0001156,53.215,130.8845,79.4895,280.6228,3.6824e-06,-2.29e-06,0.0,0 STARLINK-3386,1 51126U 22005Y   24115.43179669 -.00000229  00000-0  36824-5 0  9994,2 51126  53.2150 130.8845 0001156  79.4895 280.6228 15.08835991126553,6917.893,95.438,540.557,538.958,0.0
51126.0,STARLINK-3386,PAYLOAD,2024-04-25 07:01:48,15.08842604,0.0001398,53.2156,127.0253,64.9359,295.1778,0.00025441,3.764e-05,0.0,0 STARLINK-3386,1 51126U 22005Y   24116.29291944  .00003764  00000-0  25441-3 0  9997,2 51126  53.2156 127.0253 0001398  64.9359 295.1778 15.08842604125573,6917.872,95.437,540.705,538.77,0.0
51126.0,STARLINK-3386,PAYLOAD,2024-04-26 03:41:48,15.08859091,0.0001363,53.2155,123.1515,71.4668,288.6473,0.00056402,8.704e-05,0.0,0 STARLINK-3386,1 51126U 22005Y   24117.15403157  .00008704  00000-0  56402-3 0  9994,2 51126  53.2155 123.1515 0001363  71.4668 288.6473 15.08859091126813,6917.822,95.436,540.63,538.744,0.0
51126.0,STARLINK-3386,PAYLOAD,2024-04-26 06:52:34,15.08857615,0.0001233,53.2149,122.5568,82.6452,277.4681,0.00042681,6.515e-05,0.0,0 STARLINK-3386,1 51126U 22005Y   24117.28650956  .00006515  00000-0  42681-3 0  9991,2 51126  53.2149 122.5568 0001233  82.6452 277.4681 15.08857615125724,6917.827,95.436,540.545,538.839,0.0
51126.0,STARLINK-3386,PAYLOAD,2024-04-27 03:32:34,15.08848542,0.0001295,53.2163,118.6907,86.9695,273.1446,1.5125e-05,-4.7e-07,0.0,0 STARLINK-3386,1 51126U 22005Y   24118.14762565 -.00000047  00000-0  15125-4 0  9996,2 51126  53.2163 118.6907 0001295  86.9695 273.1446 15.08848542126965,6917.854,95.437,540.615,538.823,0.0
51126.0,STARLINK-3386,PAYLOAD,2024-04-27 09:54:07,15.08847472,0.0001365,53.2174,117.501,94.3002,265.8146,-6.95e-06,-3.99e-06,0.0,0 STARLINK-3386,1 51126U 22005Y   24118.41258526 -.00000399  00000-0 -69500-5 0  9991,2 51126  53.2174 117.5010 0001365  94.3002 265.8146 15.08847472125890,6917.858,95.437,540.667,538.778,0.0
51126.0,STARLINK-3386,PAYLOAD,2024-04-28 03:23:24,15.08812623,0.0001258,53.2177,114.2296,101.6017,258.5117,-0.00024736,-4.219e-05,0.0,0 STARLINK-3386,1 51126U 22005Y   24119.14125585 -.00004219  00000-0 -24736-3 0  9995,2 51126  53.2177 114.2296 0001258 101.6017 258.5117 15.08812623127116,6917.964,95.439,540.699,538.959,0.0
51126.0,STARLINK-3386,PAYLOAD,2024-04-28 06:34:11,15.08811634,0.0001181,53.218,113.6365,92.4718,267.6409,-0.00024004,-4.103e-05,0.0,0 STARLINK-3386,1 51126U 22005Y   24119.27373851 -.00004103  00000-0 -24004-3 0  9990,2 51126  53.2180 113.6365 0001181  92.4718 267.6409 15.08811634126025,6917.967,95.439,540.649,539.015,0.0
51126.0,STARLINK-3386,PAYLOAD,2024-04-28 22:28:02,15.08814689,0.0001039,53.2154,110.6565,94.092,266.0191,-0.00010963,-2.031e-05,0.0,0 STARLINK-3386,1 51126U 22005Y   24119.93614049 -.00002031  00000-0 -10963-3 0  9997,2 51126  53.2154 110.6565 0001039  94.0920 266.0191 15.08814689126125,6917.958,95.439,540.542,539.104,0.0
51126.0,STARLINK-3386,PAYLOAD,2024-04-29 04:49:33,15.08835141,0.0001312,53.2175,109.4753,103.0937,257.0201,9.4256e-05,1.212e-05,0.0,0 STARLINK-3386,1 51126U 22005Y   24120.20108348  .00001212  00000-0  94256-4 0  9995,2 51126  53.2175 109.4753 0001312 103.0937 257.0201 15.08835141127271,6917.895,95.438,540.668,538.853,0.0
51126.0,STARLINK-3386,PAYLOAD,2024-04-29 06:24:56,15.08835344,0.0001347,53.2174,109.1779,105.886,254.2281,0.00010389,1.366e-05,0.0,0 STARLINK-3386,1 51126U 22005Y   24120.26732323  .00001366  00000-0  10389-3 0  9991,2 51126  53.2174 109.1779 0001347 105.8860 254.2281 15.08835344126178,6917.895,95.438,540.691,538.828,0.0
51126.0,STARLINK-3386,PAYLOAD,2024-04-30 06:15:43,15.08835076,0.000128,53.2176,104.7168,102.858,257.2555,0.00037941,5.755e-05,0.0,0 STARLINK-3386,1 51126U 22005Y   24121.26091703  .00005755  00000-0  37941-3 0  9991,2 51126  53.2176 104.7168 0001280 102.8580 257.2555 15.08835076127434,6917.895,95.438,540.646,538.875,0.0
51126.0,STARLINK-3386,PAYLOAD,2024-04-30 15:48:01,15.08846166,0.0001242,53.2178,102.9321,92.0245,268.0889,0.00038412,5.832e-05,0.0,0 STARLINK-3386,1 51126U 22005Y   24121.65835067  .00005832  00000-0  38412-3 0  9993,2 51126  53.2178 102.9321 0001242  92.0245 268.0889 15.08846166127491,6917.862,95.437,540.586,538.867,0.0
